STARLINK-31498          
1 59189C 24045M   26106.16715278 -.00000123  00000+0 -44578-5 0  1069
2 59189  42.9998 241.1731 0001619 261.2592 317.9142 15.27571275    18
STARLINK-31563          
1 59190C 24045N   26106.21159722  .00026858  00000+0  97305-3 0  1068
2 59190  43.0026 240.4398 0001639 260.0999  48.9244 15.27556168    13
STARLINK-31551          
1 59191C 24045P   26106.18312500  .00015666  00000+0  56728-3 0  1069
2 59191  43.0024 237.0214 0001718 269.7180 303.4988 15.27577640    19
STARLINK-31536          
1 59192C 24045Q   26106.14979167 -.00006309  00000+0 -22853-3 0  1062
2 59192  43.0033 240.9803 0001942 265.2079 338.6499 15.27577484    17
STARLINK-31548          
1 59193C 24045R   26106.23381944  .00028215  00000+0  10221-2 0  1066
2 59193  43.0001 240.8826 0001542 265.3775 285.4546 15.27560311    10
STARLINK-31542          
1 59194C 24045S   26106.24979167  .00034074  00000+0  12342-2 0  1064
2 59194  43.0015 240.0324 0001406 261.5189 335.6055 15.27560757    14
STARLINK-31554          
1 59195C 24045T   26106.17687500  .00008909  00000+0  32288-3 0  1064
2 59195  43.0006 241.0201 0001841 267.9628  47.2168 15.27554583    12
STARLINK-31558          
1 59196C 24045U   26106.19145833  .00015396  00000+0  55779-3 0  1063
2 59196  43.0021 240.4130 0001481 264.4259 350.3119 15.27563115    11
STARLINK-31275          
1 59197C 24045V   26106.18590278  .00013307  00000+0  48198-3 0  1067
2 59197  42.9999 241.0187 0001680 267.5564  76.0603 15.27570741    10
STARLINK-31590          
1 59198C 24045W   26106.18590278  .00012183  00000+0  44113-3 0  1062
2 59198  43.0000 241.1169 0001533 264.2547  36.9027 15.27581878    17
STARLINK-31567          
1 59199C 24045X   26106.19562500  .00015053  00000+0  54486-3 0  1064
2 59199  43.0031 240.5784 0001770 269.8787 289.9422 15.27591275    19
STARLINK-31503          
1 59200C 24045Y   26106.20673611  .00020723  00000+0  75065-3 0  1061
2 59200  43.0030 240.5663 0001871 259.9748 339.8350 15.27565259    14
STARLINK-31603          
1 59201C 24046A   26106.25743056 -.00045184  00000+0 -15227-2 0  1062
2 59201  53.1594 341.1261 0001504  78.7296  56.9498 15.30216790    19
STARLINK-31602          
1 59202C 24046B   26106.26090278 -.00022018  00000+0 -74225-3 0  1060
2 59202  53.1591 340.7028 0001037  70.2160 288.1956 15.30196139    13
STARLINK-31577          
1 59203C 24046C   26106.25534722 -.00017554  00000+0 -59153-3 0  1069
2 59203  53.1599 340.4797 0001335 100.9996 354.6219 15.30205215    18
STARLINK-31522          
1 59204C 24046D   26106.22687500 -.00012693  00000+0 -42803-3 0  1063
2 59204  53.1588 341.2455 0001423  76.6411 262.3407 15.30180971    11
STARLINK-31586          
1 59205C 24046E   26106.20881944  .00002107  00000+0  71010-4 0  1060
2 59205  53.1585 341.0481 0001254  83.7716 295.2271 15.30187414    18
STARLINK-31247          
1 59206C 24046F   26106.25812500 -.00023200  00000+0 -78200-3 0  1064
2 59206  53.1583 340.9670 0001305  89.6839 125.4550 15.30199531    10
STARLINK-31591          
1 59207C 24046G   26106.15326389  .00039168  00000+0  13201-2 0  1066
2 59207  53.1588 341.2286 0001262  82.4735  31.0333 15.30172542    15
STARLINK-31576          
1 59208C 24046H   26106.24909722 -.00021465  00000+0 -72357-3 0  1066
2 59208  53.1597 340.6895 0001180  80.1082 248.1302 15.30196809    13
STARLINK-31601          
1 59209C 24046J   26106.21923611 -.00007474  00000+0 -25193-3 0  1067
2 59209  53.1603 340.7131 0001281  86.8420 134.9798 15.30192088    13
STARLINK-31520          
1 59210C 24046K   26106.18312500  .00016837  00000+0  56746-3 0  1063
2 59210  53.1583 341.2810 0001344  84.8856  94.3251 15.30184313    18
STARLINK-31496          
1 59211C 24046L   26106.15951389  .00012612  00000+0  42513-3 0  1069
2 59211  53.1593 328.6209 0001252  81.9794 324.3187 15.30181343    12
STARLINK-31492          
1 59212C 24046M   26106.16159722  .00026669  00000+0  89884-3 0  1061
2 59212  53.1597 341.5844 0001291  84.2393 231.6232 15.30178146    18
STARLINK-31517          
1 59213C 24046N   26106.20187500  .00007018  00000+0  23646-3 0  1063
2 59213  53.1587 341.0387 0001149  87.7451 287.8181 15.30198419    11
STARLINK-31604          
1 59214C 24046P   26106.25743056 -.00026585  00000+0 -89614-3 0  1062
2 59214  53.1586 340.7848 0001295  85.5043 218.8743 15.30200829    11
STARLINK-31434          
1 59215C 24046Q   26106.23729167 -.00023215  00000+0 -78250-3 0  1069
2 59215  53.1603 340.5943 0001267  80.5705 258.2191 15.30200066    13
STARLINK-31417          
1 59216C 24046R   26106.16993056  .00024430  00000+0  82347-3 0  1062
2 59216  53.1595 341.5410 0001245  84.4881 283.1167 15.30175307    17
STARLINK-31499          
1 59217C 24046S   26106.24770833 -.00023046  00000+0 -77675-3 0  1060
2 59217  53.1603 340.6579 0001246  83.9365 254.0987 15.30202194    18
STARLINK-31421          
1 59218C 24046T   26106.17687500  .00020804  00000+0  70126-3 0  1062
2 59218  53.1605 340.9573 0001234  81.3501 255.3314 15.30177132    10
STARLINK-31518          
1 59219C 24046U   26106.19909722  .00010173  00000+0  34285-3 0  1062
2 59219  53.1593 340.9540 0001272  80.7899 314.4224 15.30188782    16
STARLINK-31523          
1 59220C 24046V   26106.19631944  .00004761  00000+0  16046-3 0  1063
2 59220  53.1582 341.1374 0001244  85.4146 207.2419 15.30188989    14
STARLINK-31516          
1 59221C 24046W   26106.17409722  .00019362  00000+0  65267-3 0  1061
2 59221  53.1604 340.9669 0001288  84.4233 225.3436 15.30177057    12
STARLINK-31490          
1 59222C 24046X   26106.20673611 -.00000848  00000+0 -28573-4 0  1067
2 59222  53.1589 341.3405 0001373  88.0846 134.0177 15.30186652    12
STARLINK-31420          
1 59223C 24046Y   26106.18937500  .00015263  00000+0  51438-3 0  1065
2 59223  53.1587 341.3871 0001322  84.0277  59.8349 15.30185624    19
STARLINK-31305          
1 59232C 24049B   26106.20395833 -.00027145  00000+0 -98312-3 0  1064
2 59232  43.0007 291.4589 0001609 267.7481 168.1925 15.27593929    11
STARLINK-31459          
1 59233C 24049C   26106.25187500 -.00028663  00000+0 -10382-2 0  1066
2 59233  43.0004 291.4067 0001576 266.2373 348.6192 15.27592219    19
STARLINK-31438          
1 59234C 24049D   26106.19770833 -.00033979  00000+0 -12311-2 0  1067
2 59234  43.0017 280.7058 0001744 271.4907 305.9777 15.27583432    15
STARLINK-31467          
1 59235C 24049E   26106.24631944 -.00030551  00000+0 -11067-2 0  1063
2 59235  43.0007 291.4041 0001555 262.7656 335.6646 15.27587668    10
STARLINK-31444          
1 59236C 24049F   26106.18868056  .00050512  00000+0  15679-2 0  1063
2 59236  43.0025 221.6385 0004952 334.1081 148.1813 15.32522787    17
STARLINK-31505          
1 59237C 24049G   26106.19770833 -.00037188  00000+0 -13470-2 0  1063
2 59237  43.0001 291.7731 0001451 270.8799  24.5015 15.27595678    12
STARLINK-31494          
1 59238C 24049H   26106.15326389 -.00020618  00000+0 -74666-3 0  1068
2 59238  43.0007 291.7292 0002010 270.3643 260.5936 15.27592312    12
STARLINK-31303          
1 59239C 24049J   26106.25534722 -.00006768  00000+0 -24513-3 0  1068
2 59239  43.0002 280.5360 0001528 263.3192 179.5733 15.27584344    14
STARLINK-31408          
1 59240C 24049K   26106.19909722 -.00035697  00000+0 -12932-2 0  1063
2 59240  43.0025 291.9932 0001468 262.5537 301.4569 15.27590860    12
STARLINK-31427          
1 59241C 24049L   26106.18034722 -.00025415  00000+0 -92038-3 0  1065
2 59241  43.0025 292.1211 0001500 268.9611 170.5987 15.27596260    15
STARLINK-31423          
1 59242C 24049M   26106.24840278 -.00022809  00000+0 -82621-3 0  1065
2 59242  43.0022 291.6757 0001445 257.0761 232.5360 15.27587256    14
STARLINK-31433          
1 59243C 24049N   26106.16159722 -.00022544  00000+0 -81642-3 0  1062
2 59243  43.0007 291.8317 0001514 271.1274 242.0471 15.27594043    16
STARLINK-31285          
1 59244C 24049P   26106.19701389 -.00028220  00000+0 -10225-2 0  1063
2 59244  43.0013 291.4294 0001559 273.3490 159.7292 15.27581064    11
STARLINK-31284          
1 59246C 24049R   26106.25534722 -.00026057  00000+0 -94415-3 0  1067
2 59246  43.0004 291.2517 0001440 268.4087  62.1641 15.27578847    15
STARLINK-31424          
1 59247C 24049S   26106.26020833 -.00022394  00000+0 -81131-3 0  1063
2 59247  43.0005 287.8813 0001474 271.4845  33.6547 15.27582014    19
STARLINK-31405          
1 59248C 24049T   26106.16437500 -.00023441  00000+0 -84930-3 0  1060
2 59248  43.0008 292.0486 0001593 273.0349 156.4124 15.27579047    13
STARLINK-31426          
1 59249C 24049U   26106.16923611 -.00024046  00000+0 -87083-3 0  1068
2 59249  43.0013 292.0656 0001278 268.1239 166.8477 15.27594208    14
STARLINK-31407          
1 59250C 24049V   26106.17826389 -.00034047  00000+0 -12327-2 0  1065
2 59250  43.0025 280.5928 0001888 268.7904 293.4948 15.27608541    11
STARLINK-31393          
1 59252C 24049X   26106.23173611 -.00013523  00000+0 -48996-3 0  1065
2 59252  43.0007 276.9574 0001656 267.9720 169.5730 15.27573929    12
STARLINK-31425          
1 59253C 24049Y   26106.17687500 -.00034322  00000+0 -12434-2 0  1063
2 59253  43.0012 291.6448 0001557 264.3869  15.3450 15.27590110    16
STARLINK-31659          
1 59254C 24050A   26106.19145833  .00040818  00000+0  13757-2 0  1060
2 59254  53.1591   4.6298 0001033  89.0745 173.5810 15.30171659    14
STARLINK-31629          
1 59255C 24050B   26106.16437500  .00039725  00000+0  13391-2 0  1062
2 59255  53.1593   6.9689 0001258  84.1363 345.6134 15.30167078    18
STARLINK-31652          
1 59256C 24050C   26106.16923611  .00044954  00000+0  15152-2 0  1063
2 59256  53.1599   6.8092 0001340  83.2553  83.0844 15.30166657    18
STARLINK-31637          
1 59258C 24050E   26106.22756944  .00036815  00000+0  12407-2 0  1062
2 59258  53.1601   6.4695 0001375  83.5963  79.1600 15.30175010    14
